IRIDIUM 171             
1 43929U 19002H   26013.97290527 -.00000012  00000+0 -11265-4 0  9995
2 43929  86.3940  58.3254 0002226  88.4366 271.7085 14.34217443366854
IRIDIUM 170             
1 43930U 19002J   26013.53863734  .00000630  00000+0  96016-4 0  9996
2 43930  86.6055  58.2118 0002440  90.4200 269.7297 14.72249112376507
IRIDIUM 167             
1 43931U 19002K   26013.82702587  .00000048  00000+0  10208-4 0  9999
2 43931  86.3936  58.1180 0002546  87.1195 273.0293 14.34217794366832
IRIDIUM 181             
1 56726U 23068S   26013.70990138  .00000220  00000+0  59440-4 0  9993
2 56726  86.4530 121.3776 0001773  92.3964 267.7440 14.43308294140151
IRIDIUM 177             
1 56727U 23068T   26013.51490584  .00000916  00000+0  11710-3 0  9992
2 56727  86.1939  42.2327 0002330  89.3301 270.8187 14.80228368143482
IRIDIUM 174             
1 56728U 23068U   26013.93408316  .00000630  00000+0  95930-4 0  9991
2 56728  86.6066  58.1779 0002251  93.5868 266.5607 14.72256042143326
IRIDIUM 178             
1 56729U 23068V   26013.70687026  .00000940  00000+0  12032-3 0  9999
2 56729  86.6528  89.9431 0002382  84.0441 276.1052 14.80232997143518
IRIDIUM 179             
1 56730U 23068W   26013.76902747  .00000986  00000+0  12634-3 0  9995
2 56730  86.6778  98.4392 0002465  88.5453 271.6051 14.80218897143525
